#aV2021  2 27  0  0  0.00000000     288 DD+AD WGS84 FIT  NGA
## 2146 518400.00000000   300.00000000 59272 0.0000000000000
+   32     1  2  3  4  5  6  7  8  9 10 11 12 13 14 15 16 17
+         18 19 20 21 22 23 24 25 26 27 28 29 30 31 32  0  0
+          0  0  0  0  0  0  0  0  0  0  0  0  0  0  0  0  0
+          0  0  0  0  0  0  0  0  0  0  0  0  0  0  0  0  0
+          0  0  0  0  0  0  0  0  0  0  0  0  0  0  0  0  0
++         2  2  2  2  2  2  2  2  2  2  2  2  2  2  2  2  2
++         2  2  2  2  2  2  2  2  2  2  2  2  2  2  2  0  0
++         0  0  0  0  0  0  0  0  0  0  0  0  0  0  0  0  0
++         0  0  0  0  0  0  0  0  0  0  0  0  0  0  0  0  0
++         0  0  0  0  0  0  0  0  0  0  0  0  0  0  0  0  0
%c cc cc ccc ccc cccc cccc cccc cccc ccccc ccccc ccccc ccccc
%c cc cc ccc ccc cccc cccc cccc cccc ccccc ccccc ccccc ccccc
%f  0.0000000  0.000000000  0.00000000000  0.000000000000000
%f  0.0000000  0.000000000  0.00000000000  0.000000000000000
%i    0    0    0    0      0      0      0      0         0
%i    0    0    0    0      0      0      0      0         0
/*      NGA, ST. LOUIS,MO.                                  
/*   EPHEMERIS COMPUTED FROM 2 DAYS OF DATA                 
/*   EPOCHA v5 SMOOTHER                                     
/*   G2139 IERS2010 SATAF SATAPC                            
*  2021  2 27 18 40  0.00000000
P  1   7174.566192 -18189.436106 -18053.438004    752.253950                    
V  1  20082.104197 -10265.875236  18906.664280     -0.082079                    
P  2 -22136.519072  14581.520085  -1220.236161   -581.204779                    
V  2    302.695766  -3630.941159 -31716.044557     -0.038179                    
P  3  -4026.393402 -17624.338951 -19572.735156    -94.491101                    
V  3  22067.270701  10988.188590 -14388.237516     -0.102826                    
P  4   1888.497657 -26377.136563  -2119.444145   -183.092488                    
V  4   2813.544915   2746.432515 -31641.179402     -0.024800                    
P  5 -14866.575147   8471.990704  20211.852398    -34.854229                    
V  5 -22691.458566 -12666.887676 -11115.227284     -0.010202                    
P  6 -22755.407954   3343.296395 -13268.605700     -1.351298                    
V  6  13619.543579 -10137.588925 -25730.605788      0.014979                    
P  7  -8545.206254 -13034.470441  21848.089861     73.419136                    
V  7  23313.875353 -13573.325560    549.962680      0.128843                    
P  8   5729.654281 -23950.975092   9543.092623    -11.878532                    
V  8   2979.590605  12103.131625  28889.646293     -0.013758                    
P  9  -7233.913248 -23873.686882   9023.493795   -326.773839                    
V  9   2400.556504 -11651.618789 -28731.984512     -0.033668                    
P 10  23973.026730  11560.863460  -2091.818509    -70.592135                    
V 10   1289.459722   3397.481379  31599.424503     -0.080392                    
P 11   8092.843370 -24497.772153  -7521.241026    -12.712009                    
V 11   7727.064962  -5773.933175  28480.054727      0.106419                    
P 12  -1277.073340  16330.996751 -21191.126633     -7.032653                    
V 12 -22313.093742 -13843.749442  -9284.135545     -0.052694                    
P 13 -12897.853230  16704.038421  15915.187357    102.084292                    
V 13    432.898409 -20571.086225  21878.424619      0.043653                    
P 14 -22988.327464 -13277.740542  -1052.605178     99.048806                    
V 14    390.440654  -3159.766481  31647.987181      0.013556                    
P 15  -3217.128330  24609.770603   8585.651392   -166.507320                    
V 15  -5330.723430 -10946.342847  28571.866682      0.026031                    
P 16  17174.028182  -4472.258929  19668.712601   -286.520612                    
V 16  20465.887535  14929.483493 -13849.261207     -0.057250                    
P 17 -13121.049208 -10154.019316 -20311.390245    401.400006                    
V 17   1973.126950 -26648.954117  11798.413349      0.063984                    
P 18  11070.889528  10824.614742  21582.157259    349.026116                    
V 18 -23579.516544  13937.538818   5047.232547      0.013720                    
P 19 -14844.832060  -1181.286226 -22274.826475    -32.869693                    
V 19   2340.777488 -27438.486053   -196.506432      0.050256                    
P 20  19412.612978  15284.282161  10047.762712    524.491577                    
V 20 -13004.495296  -1782.876051  27420.259229     -0.001701                    
P 21  14180.380012 -19122.161349 -10567.652656     99.124533                    
V 21  13793.127629  -5907.302203  27767.449139      0.031368                    
P 22   5269.282056 -14820.727757 -21206.705235   -670.728185                    
V 22  25246.471497  10895.833632  -1155.763250      0.077534                    
P 23  19125.976062  16475.867575   8300.832530    118.305372                    
V 23 -10522.946041  -2650.643512  29389.509463     -0.002992                    
P 24 -10955.774345  19924.250038 -13638.777589      1.771028                    
V 24 -15778.485428   7351.329954  24227.339773     -0.005103                    
P 25  13433.952489  18543.344553 -13950.832491     89.041392                    
V 25 -15940.114078  -6656.016886 -24383.601040      0.075885                    
P 26  23507.682166   1664.901428  12456.114044     51.043874                    
V 26  13001.539227   9408.932378 -25419.623251      0.054511                    
P 27  12282.375289 -14070.319115  18573.134354    -84.579415                    
V 27   1904.633328  23979.282297  17118.695930     -0.072972                    
P 28 -22803.786932 -12829.876438  -3355.275386    609.428226                    
V 28  -2635.655316  -4951.624961  31788.884882     -0.054830                    
P 29   4971.078797  24280.580685   9452.857991   -302.829830                    
V 29  -2542.472371  11926.023010 -29204.482414     -0.069713                    
P 30 -19179.133339  -4360.414642  17998.063512   -391.147825                    
V 30  18924.187196 -12762.890307  16893.740310     -0.056384                    
P 31  24058.987592  -4892.332708 -10787.077391   -102.646253                    
V 31 -10588.408012   8548.992999 -27239.673831     -0.022760                    
P 32  14658.917040   8130.841282 -20541.177805     20.050283                    
V 32   -211.209552  26289.969263  10040.868506      0.010446                    
EOF
